{"type": "FeatureCollection", "features": [ {"type": "Feature", "properties": {"norad_id": 66928, "name": "STARLINK-35944", "group": "last-30-days", "lat": -45.244973087889974, "lon": -118.4607022239988, "alt_km": 341.8755184961865, "timestamp": "2025-12-20T07:33:49.515709+00:00", "meta": {"OBJECT_NAME": "STARLINK-35944", "OBJECT_ID": "2025-286D", "EPOCH": "2025-12-19T22:00:01.999584", "MEAN_MOTION": 15.78877617, "ECCENTRICITY": 9.039e-05, "INCLINATION": 53.1558, "RA_OF_ASC_NODE": 14.3915, "ARG_OF_PERICENTER": 99.3991, "MEAN_ANOMALY": 37.7348, "EPHEMERIS_TYPE": 0, "CLASSIFICATION_TYPE": "U", "NORAD_CAT_ID": 66928, "ELEMENT_SET_NO": 999, "REV_AT_EPOCH": 314, "BSTAR": -0.0079757845, "MEAN_MOTION_DOT": -0.01267497, "MEAN_MOTION_DDOT": 0}, "tle": {"line1": "1 66928U 25286D   25353.91668981 -.01267497  00000+0 -79758-2 0  9995", "line2": "2 66928  53.1558  14.3915 0000903  99.3991  37.7348 15.78877617  3142"}}, "geometry": {"type": "Point", "coordinates": [-118.4607022239988, -45.244973087889974]}}, {"type": "Feature", "properties": {"norad_id": 66929, "name": "STARLINK-36169", "group": "last-30-days", "lat": -48.252519066717504, "lon": -110.44874851052893, "alt_km": 342.4960829887923, "timestamp": "2025-12-20T07:33:49.515719+00:00", "meta": {"OBJECT_NAME": "STARLINK-36169", "OBJECT_ID": "2025-286E", "EPOCH": "2025-12-19T22:00:01.999584", "MEAN_MOTION": 15.788394, "ECCENTRICITY": 0.00012199, "INCLINATION": 53.1555, "RA_OF_ASC_NODE": 14.3782, "ARG_OF_PERICENTER": 80.821, "MEAN_ANOMALY": 62.6858, "EPHEMERIS_TYPE": 0, "CLASSIFICATION_TYPE": "U", "NORAD_CAT_ID": 66929, "ELEMENT_SET_NO": 999, "REV_AT_EPOCH": 314, "BSTAR": -0.0084211716, "MEAN_MOTION_DOT": -0.01352835, "MEAN_MOTION_DDOT": 0}, "tle": {"line1": "1 66929U 25286E   25353.91668981 -.01352835  00000+0 -84212-2 0  9998", "line2": "2 66929  53.1555  14.3782 0001219  80.8210  62.6858 15.78839400  3143"}}, "geometry": {"type": "Point", "coordinates": [-110.44874851052893, -48.252519066717504]}}, {"type": "Feature", "properties": {"norad_id": 66930, "name": "STARLINK-36206", "group": "last-30-days", "lat": -49.09942259328718, "lon": -107.66003674254007, "alt_km": 342.27504414408577, "timestamp": "2025-12-20T07:33:49.515729+00:00", "meta": {"OBJECT_NAME": "STARLINK-36206", "OBJECT_ID": "2025-286F", "EPOCH": "2025-12-19T22:00:01.999584", "MEAN_MOTION": 15.78825546, "ECCENTRICITY": 7.39e-05, "INCLINATION": 53.1554, "RA_OF_ASC_NODE": 14.3737, "ARG_OF_PERICENTER": 95.0113, "MEAN_ANOMALY": 50.554, "EPHEMERIS_TYPE": 0, "CLASSIFICATION_TYPE": "U", "NORAD_CAT_ID": 66930, "ELEMENT_SET_NO": 999, "REV_AT_EPOCH": 314, "BSTAR": -0.0084647891, "MEAN_MOTION_DOT": -0.01358063, "MEAN_MOTION_DDOT": 0}, "tle": {"line1": "1 66930U 25286F   25353.91668981 -.01358063  00000+0 -84648-2 0  9992", "line2": "2 66930  53.1554  14.3737 0000739  95.0113  50.5540 15.78825546  3140"}}, "geometry": {"type": "Point", "coordinates": [-107.66003674254007, -49.09942259328718]}}, {"type": "Feature", "properties": {"norad_id": 66931, "name": "STARLINK-36130", "group": "last-30-days", "lat": -49.920720243555735, "lon": -104.60420306907335, "alt_km": 342.7051795473444, "timestamp": "2025-12-20T07:33:49.515739+00:00", "meta": {"OBJECT_NAME": "STARLINK-36130", "OBJECT_ID": "2025-286G", "EPOCH": "2025-12-19T22:00:01.999584", "MEAN_MOTION": 15.78796415, "ECCENTRICITY": 0.00011538, "INCLINATION": 53.1555, "RA_OF_ASC_NODE": 14.3692, "ARG_OF_PERICENTER": 82.1436, "MEAN_ANOMALY": 65.6314, "EPHEMERIS_TYPE": 0, "CLASSIFICATION_TYPE": "U", "NORAD_CAT_ID": 66931, "ELEMENT_SET_NO": 999, "REV_AT_EPOCH": 314, "BSTAR": -0.008626938, "MEAN_MOTION_DOT": -0.01379824, "MEAN_MOTION_DDOT": 0}, "tle": {"line1": "1 66931U 25286G   25353.91668981 -.01379824  00000+0 -86269-2 0  9992", "line2": "2 66931  53.1555  14.3692 0001153  82.1436  65.6314 15.78796415  3146"}}, "geometry": {"type": "Point", "coordinates": [-104.60420306907335, -49.920720243555735]}}, {"type": "Feature", "properties": {"norad_id": 66932, "name": "STARLINK-36177", "group": "last-30-days", "lat": -50.64851102793345, "lon": -101.49538771339272, "alt_km": 342.79775745904044, "timestamp": "2025-12-20T07:33:49.515749+00:00", "meta": {"OBJECT_NAME": "STARLINK-36177", "OBJECT_ID": "2025-286H", "EPOCH": "2025-12-19T22:00:01.999584", "MEAN_MOTION": 15.7875651, "ECCENTRICITY": 0.00010784, "INCLINATION": 53.1556, "RA_OF_ASC_NODE": 14.3646, "ARG_OF_PERICENTER": 79.3689, "MEAN_ANOMALY": 70.5866, "EPHEMERIS_TYPE": 0, "CLASSIFICATION_TYPE": "U", "NORAD_CAT_ID": 66932, "ELEMENT_SET_NO": 999, "REV_AT_EPOCH": 314, "BSTAR": -0.0086426152, "MEAN_MOTION_DOT": -0.01379774, "MEAN_MOTION_DDOT": 0}, "tle": {"line1": "1 66932U 25286H   25353.91668981 -.01379774  00000+0 -86426-2 0  9992", "line2": "2 66932  53.1556  14.3646 0001078  79.3689  70.5866 15.78756510  3140"}}, "geometry": {"type": "Point", "coordinates": [-101.49538771339272, -50.64851102793345]}}, {"type": "Feature", "properties": {"norad_id": 66933, "name": "STARLINK-36157", "group": "last-30-days", "lat": -51.28601189958981, "lon": -98.3206590349345, "alt_km": 342.84822942138635, "timestamp": "2025-12-20T07:33:49.515759+00:00", "meta": {"OBJECT_NAME": "STARLINK-36157", "OBJECT_ID": "2025-286J", "EPOCH": "2025-12-19T22:00:01.999584", "MEAN_MOTION": 15.78727361, "ECCENTRICITY": 9.505e-05, "INCLINATION": 53.1557, "RA_OF_ASC_NODE": 14.3601, "ARG_OF_PERICENTER": 83.2313, "MEAN_ANOMALY": 68.8803, "EPHEMERIS_TYPE": 0, "CLASSIFICATION_TYPE": "U", "NORAD_CAT_ID": 66933, "ELEMENT_SET_NO": 999, "REV_AT_EPOCH": 314, "BSTAR": -0.0087270381, "MEAN_MOTION_DOT": -0.01390045, "MEAN_MOTION_DDOT": 0}, "tle": {"line1": "1 66933U 25286J   25353.91668981 -.01390045  00000+0 -87270-2 0  9995", "line2": "2 66933  53.1557  14.3601 0000950  83.2313  68.8803 15.78727361  3142"}}, "geometry": {"type": "Point", "coordinates": [-98.3206590349345, -51.28601189958981]}}, {"type": "Feature", "properties": {"norad_id": 66934, "name": "STARLINK-36153", "group": "last-30-days", "lat": -51.836227600001955, "lon": -95.05519713172829, "alt_km": 343.1341467234488, "timestamp": "2025-12-20T07:33:49.515769+00:00", "meta": {"OBJECT_NAME": "STARLINK-36153", "OBJECT_ID": "2025-286K", "EPOCH": "2025-12-19T22:00:01.999584", "MEAN_MOTION": 15.78690888, "ECCENTRICITY": 0.00011845, "INCLINATION": 53.1557, "RA_OF_ASC_NODE": 14.3552, "ARG_OF_PERICENTER": 72.7612, "MEAN_ANOMALY": 81.5164, "EPHEMERIS_TYPE": 0, "CLASSIFICATION_TYPE": "U", "NORAD_CAT_ID": 66934, "ELEMENT_SET_NO": 999, "REV_AT_EPOCH": 314, "BSTAR": -0.0087763562, "MEAN_MOTION_DOT": -0.01395099, "MEAN_MOTION_DDOT": 0}, "tle": {"line1": "1 66934U 25286K   25353.91668981 -.01395099  00000+0 -87764-2 0  9998", "line2": "2 66934  53.1557  14.3552 0001184  72.7612  81.5164 15.78690888  3148"}}, "geometry": {"type": "Point", "coordinates": [-95.05519713172829, -51.836227600001955]}}, {"type": "Feature", "properties": {"norad_id": 66935, "name": "STARLINK-36127", "group": "last-30-days", "lat": -52.313010070185, "lon": -91.5504159231039, "alt_km": 343.2440561571693, "timestamp": "2025-12-20T07:33:49.515781+00:00", "meta": {"OBJECT_NAME": "STARLINK-36127", "OBJECT_ID": "2025-286L", "EPOCH": "2025-12-19T22:00:01.999584", "MEAN_MOTION": 15.78637953, "ECCENTRICITY": 0.00010679, "INCLINATION": 53.1552, "RA_OF_ASC_NODE": 14.3508, "ARG_OF_PERICENTER": 86.0869, "MEAN_ANOMALY": 70.4855, "EPHEMERIS_TYPE": 0, "CLASSIFICATION_TYPE": "U", "NORAD_CAT_ID": 66935, "ELEMENT_SET_NO": 999, "REV_AT_EPOCH": 314, "BSTAR": -0.0088798576, "MEAN_MOTION_DOT": -0.01406622, "MEAN_MOTION_DDOT": 0}, "tle": {"line1": "1 66935U 25286L   25353.91668981 -.01406622  00000+0 -88799-2 0  9993", "line2": "2 66935  53.1552  14.3508 0001067  86.0869  70.4855 15.78637953  3145"}}, "geometry": {"type": "Point", "coordinates": [-91.5504159231039, -52.313010070185]}}, {"type": "Feature", "properties": {"norad_id": 66936, "name": "STARLINK-36160", "group": "last-30-days", "lat": -52.66014105854042, "lon": -88.24687969295394, "alt_km": 343.2833684249008, "timestamp": "2025-12-20T07:33:49.515794+00:00", "meta": {"OBJECT_NAME": "STARLINK-36160", "OBJECT_ID": "2025-286M", "EPOCH": "2025-12-19T22:00:01.999584", "MEAN_MOTION": 15.78618011, "ECCENTRICITY": 9.955e-05, "INCLINATION": 53.1551, "RA_OF_ASC_NODE": 14.3465, "ARG_OF_PERICENTER": 80.9297, "MEAN_ANOMALY": 77.7297, "EPHEMERIS_TYPE": 0, "CLASSIFICATION_TYPE": "U", "NORAD_CAT_ID": 66936, "ELEMENT_SET_NO": 999, "REV_AT_EPOCH": 314, "BSTAR": -0.0089612157, "MEAN_MOTION_DOT": -0.0141687, "MEAN_MOTION_DDOT": 0}, "tle": {"line1": "1 66936U 25286M   25353.91668981 -.01416870  00000+0 -89612-2 0  9995", "line2": "2 66936  53.1551  14.3465 0000995  80.9297  77.7297 15.78618011  3148"}}, "geometry": {"type": "Point", "coordinates": [-88.24687969295394, -52.66014105854042]}}, {"type": "Feature", "properties": {"norad_id": 66937, "name": "STARLINK-36165", "group": "last-30-days", "lat": -52.915840233952075, "lon": -84.87160705851662, "alt_km": 343.4378003875463, "timestamp": "2025-12-20T07:33:49.515805+00:00", "meta": {"OBJECT_NAME": "STARLINK-36165", "OBJECT_ID": "2025-286N", "EPOCH": "2025-12-19T22:00:01.999584", "MEAN_MOTION": 15.78588683, "ECCENTRICITY": 0.00010829, "INCLINATION": 53.1554, "RA_OF_ASC_NODE": 14.3419, "ARG_OF_PERICENTER": 72.3545, "MEAN_ANOMALY": 88.4126, "EPHEMERIS_TYPE": 0, "CLASSIFICATION_TYPE": "U", "NORAD_CAT_ID": 66937, "ELEMENT_SET_NO": 999, "REV_AT_EPOCH": 314, "BSTAR": -0.0089915743, "MEAN_MOTION_DOT": -0.01419494, "MEAN_MOTION_DDOT": 0}, "tle": {"line1": "1 66937U 25286N   25353.91668981 -.01419494  00000+0 -89916-2 0  9998", "line2": "2 66937  53.1554  14.3419 0001082  72.3545  88.4126 15.78588683  3141"}}, "geometry": {"type": "Point", "coordinates": [-84.87160705851662, -52.915840233952075]}}]}